"{\n    \"CCSDS_OMM_VERS\": \"2.0\",\n    \"COMMENT\": \"GENERATED VIA SPACE-TRACK.ORG API\",\n    \"CREATION_DATE\": \"2025-08-31T02:26:50\",\n    \"ORIGINATOR\": \"18 SPCS\",\n    \"OBJECT_NAME\": \"BEIDOU 3M21\",\n    \"OBJECT_ID\": \"2019-078A\",\n    \"CENTER_NAME\": \"EARTH\",\n    \"REF_FRAME\": \"TEME\",\n    \"TIME_SYSTEM\": \"UTC\",\n    \"MEAN_ELEMENT_THEORY\": \"SGP4\",\n    \"EPOCH\": \"2025-08-30T14:11:17.895840\",\n    \"MEAN_MOTION\": \"1.8623231147\",\n    \"ECCENTRICITY\": \"0.0004576962\",\n    \"INCLINATION\": \"54.19892\",\n    \"RA_OF_ASC_NODE\": \"310.04072\",\n    \"ARG_OF_PERICENTER\": \"33.499702\",\n    \"MEAN_ANOMALY\": \"326.59438\",\n    \"EPHEMERIS_TYPE\": \"0\",\n    \"CLASSIFICATION_TYPE\": \"U\",\n    \"NORAD_CAT_ID\": \"44793\",\n    \"ELEMENT_SET_NO\": \"999\",\n    \"REV_AT_EPOCH\": \"3923\",\n    \"BSTAR\": \"0\",\n    \"MEAN_MOTION_DOT\": \"-0.000000668986\",\n    \"MEAN_MOTION_DDOT\": \"0\",\n    \"TLE_LINE0\": \"0 BEIDOU 3M21\",\n    \"TLE_LINE1\": \"1 44793U 19078A   25242.59117935 -.00000067  00000-0  00000-0 0  9991\",\n    \"TLE_LINE2\": \"2 44793  54.1989 310.0407 0004577  33.4997 326.5944  1.86232311 39235\",\n    \"SEMIMAJOR_AXIS\": \"27906.058\",\n    \"PERIOD\": \"773.228\",\n    \"APOAPSIS\": \"21540.695\",\n    \"PERIAPSIS\": \"21515.150\",\n    \"OBJECT_TYPE\": \"PAYLOAD\",\n    \"DECAYED\": \"0\"\n}"